[{"OBJECT_NAME":"SARAL","OBJECT_ID":"2013-009A","EPOCH":"2026-03-09T22:48:24.420096","MEAN_MOTION":14.32828644,"ECCENTRICITY":0.00014927,"INCLINATION":98.5556,"RA_OF_ASC_NODE":256.7632,"ARG_OF_PERICENTER":179.752,"MEAN_ANOMALY":180.3665,"EPHEMERIS_TYPE":0,"CLASSIFICATION_TYPE":"U","NORAD_CAT_ID":39086,"ELEMENT_SET_NO":999,"REV_AT_EPOCH":68139,"BSTAR":7.1114041e-5,"MEAN_MOTION_DOT":1.5e-6,"MEAN_MOTION_DDOT":0},{"OBJECT_NAME":"NOAA 16 DEB","OBJECT_ID":"2000-055MG","EPOCH":"2026-03-08T06:44:56.423904","MEAN_MOTION":14.33750039,"ECCENTRICITY":0.00256971,"INCLINATION":98.8533,"RA_OF_ASC_NODE":190.8698,"ARG_OF_PERICENTER":213.2778,"MEAN_ANOMALY":146.6791,"EPHEMERIS_TYPE":0,"CLASSIFICATION_TYPE":"U","NORAD_CAT_ID":41508,"ELEMENT_SET_NO":999,"REV_AT_EPOCH":51218,"BSTAR":0.0026780158,"MEAN_MOTION_DOT":7.428e-5,"MEAN_MOTION_DDOT":0}]
